CCSDS_OMM_VERS = 2.0
CREATION_DATE  = 
ORIGINATOR     = 

OBJECT_NAME    = UNKNOWN
OBJECT_ID      = 
CENTER_NAME    = EARTH
REF_FRAME      = TEME
TIME_SYSTEM    = UTC
MEAN_ELEMENT_THEORY = SGP/SGP4

EPOCH          = 2026-02-24T05:39:18.783648
MEAN_MOTION    = 13.98877215
ECCENTRICITY   = .02212815
INCLINATION    = 74.0121
RA_OF_ASC_NODE = 230.8807
ARG_OF_PERICENTER = 16.5424
MEAN_ANOMALY   = 344.2777

EPHEMERIS_TYPE = 0
CLASSIFICATION_TYPE = U
NORAD_CAT_ID   = 270082
ELEMENT_SET_NO = 999
REV_AT_EPOCH   = 31757
BSTAR          = .12929321E-2
MEAN_MOTION_DOT = .2276E-4
MEAN_MOTION_DDOT = 0

CCSDS_OMM_VERS = 2.0
CREATION_DATE  = 
ORIGINATOR     = 

OBJECT_NAME    = UNKNOWN
OBJECT_ID      = 
CENTER_NAME    = EARTH
REF_FRAME      = TEME
TIME_SYSTEM    = UTC
MEAN_ELEMENT_THEORY = SGP/SGP4

EPOCH          = 2026-02-25T15:54:26.924832
MEAN_MOTION    = 13.79654111
ECCENTRICITY   = .0381423
INCLINATION    = 72.8756
RA_OF_ASC_NODE = 30.6077
ARG_OF_PERICENTER = 115.3832
MEAN_ANOMALY   = 248.7284

EPHEMERIS_TYPE = 0
CLASSIFICATION_TYPE = U
NORAD_CAT_ID   = 270084
ELEMENT_SET_NO = 999
REV_AT_EPOCH   = 31029
BSTAR          = .27338176E-2
MEAN_MOTION_DOT = .4856E-4
MEAN_MOTION_DDOT = 0

CCSDS_OMM_VERS = 2.0
CREATION_DATE  = 
ORIGINATOR     = 

OBJECT_NAME    = UNKNOWN
OBJECT_ID      = 
CENTER_NAME    = EARTH
REF_FRAME      = TEME
TIME_SYSTEM    = UTC
MEAN_ELEMENT_THEORY = SGP/SGP4

EPOCH          = 2026-02-04T10:37:18.937056
MEAN_MOTION    = 12.80856904
ECCENTRICITY   = .06486401
INCLINATION    = 99.2745
RA_OF_ASC_NODE = 297.2678
ARG_OF_PERICENTER = 214.1975
MEAN_ANOMALY   = 141.5700

EPHEMERIS_TYPE = 0
CLASSIFICATION_TYPE = U
NORAD_CAT_ID   = 270085
ELEMENT_SET_NO = 999
REV_AT_EPOCH   = 28832
BSTAR          = -.21042043E-3
MEAN_MOTION_DOT = -.154E-5
MEAN_MOTION_DDOT = 0

CCSDS_OMM_VERS = 2.0
CREATION_DATE  = 
ORIGINATOR     = 

OBJECT_NAME    = UNKNOWN
OBJECT_ID      = 
CENTER_NAME    = EARTH
REF_FRAME      = TEME
TIME_SYSTEM    = UTC
MEAN_ELEMENT_THEORY = SGP/SGP4

EPOCH          = 2026-02-21T14:28:00.318144
MEAN_MOTION    = 14.99799597
ECCENTRICITY   = .00167079
INCLINATION    = 86.3532
RA_OF_ASC_NODE = 5.4874
ARG_OF_PERICENTER = 170.8296
MEAN_ANOMALY   = 189.3245

EPHEMERIS_TYPE = 0
CLASSIFICATION_TYPE = U
NORAD_CAT_ID   = 270086
ELEMENT_SET_NO = 999
REV_AT_EPOCH   = 9217
BSTAR          = .35142636E-2
MEAN_MOTION_DOT = .43822E-3
MEAN_MOTION_DDOT = 0

CCSDS_OMM_VERS = 2.0
CREATION_DATE  = 
ORIGINATOR     = 

OBJECT_NAME    = UNKNOWN
OBJECT_ID      = 
CENTER_NAME    = EARTH
REF_FRAME      = TEME
TIME_SYSTEM    = UTC
MEAN_ELEMENT_THEORY = SGP/SGP4

EPOCH          = 2026-02-02T11:19:49.675008
MEAN_MOTION    = 12.25969144
ECCENTRICITY   = .01328683
INCLINATION    = 74.0258
RA_OF_ASC_NODE = 117.1182
ARG_OF_PERICENTER = 83.4549
MEAN_ANOMALY   = 278.1595

EPHEMERIS_TYPE = 0
CLASSIFICATION_TYPE = U
NORAD_CAT_ID   = 270088
ELEMENT_SET_NO = 999
REV_AT_EPOCH   = 27693
BSTAR          = -.1945327E-5
MEAN_MOTION_DOT = -.14E-6
MEAN_MOTION_DDOT = 0

CCSDS_OMM_VERS = 2.0
CREATION_DATE  = 
ORIGINATOR     = 

OBJECT_NAME    = UNKNOWN
OBJECT_ID      = 
CENTER_NAME    = EARTH
REF_FRAME      = TEME
TIME_SYSTEM    = UTC
MEAN_ELEMENT_THEORY = SGP/SGP4

EPOCH          = 2026-01-30T14:24:09.736416
MEAN_MOTION    = 14.23862613
ECCENTRICITY   = .00352223
INCLINATION    = 98.8617
RA_OF_ASC_NODE = 344.6163
ARG_OF_PERICENTER = 292.0449
MEAN_ANOMALY   = 67.6990

EPHEMERIS_TYPE = 0
CLASSIFICATION_TYPE = U
NORAD_CAT_ID   = 270089
ELEMENT_SET_NO = 999
REV_AT_EPOCH   = 32098
BSTAR          = .22364012E-3
MEAN_MOTION_DOT = .47E-5
MEAN_MOTION_DDOT = 0

CCSDS_OMM_VERS = 2.0
CREATION_DATE  = 
ORIGINATOR     = 

OBJECT_NAME    = UNKNOWN
OBJECT_ID      = 
CENTER_NAME    = EARTH
REF_FRAME      = TEME
TIME_SYSTEM    = UTC
MEAN_ELEMENT_THEORY = SGP/SGP4

EPOCH          = 2026-02-04T21:24:49.832352
MEAN_MOTION    = 14.47507438
ECCENTRICITY   = .00108187
INCLINATION    = 97.9794
RA_OF_ASC_NODE = 262.7927
ARG_OF_PERICENTER = 297.1756
MEAN_ANOMALY   = 62.8334

EPHEMERIS_TYPE = 0
CLASSIFICATION_TYPE = U
NORAD_CAT_ID   = 270090
ELEMENT_SET_NO = 999
REV_AT_EPOCH   = 32632
BSTAR          = .2018924E-3
MEAN_MOTION_DOT = .702E-5
MEAN_MOTION_DDOT = 0

CCSDS_OMM_VERS = 2.0
CREATION_DATE  = 
ORIGINATOR     = 

OBJECT_NAME    = UNKNOWN
OBJECT_ID      = 
CENTER_NAME    = EARTH
REF_FRAME      = TEME
TIME_SYSTEM    = UTC
MEAN_ELEMENT_THEORY = SGP/SGP4

EPOCH          = 2026-02-05T14:53:49.104672
MEAN_MOTION    = 12.95520357
ECCENTRICITY   = .00323999
INCLINATION    = 90.2426
RA_OF_ASC_NODE = 7.1475
ARG_OF_PERICENTER = 120.8085
MEAN_ANOMALY   = 239.6230

EPHEMERIS_TYPE = 0
CLASSIFICATION_TYPE = U
NORAD_CAT_ID   = 270091
ELEMENT_SET_NO = 999
REV_AT_EPOCH   = 29297
BSTAR          = -.17157341E-3
MEAN_MOTION_DOT = -.41E-6
MEAN_MOTION_DDOT = 0

CCSDS_OMM_VERS = 2.0
CREATION_DATE  = 
ORIGINATOR     = 

OBJECT_NAME    = UNKNOWN
OBJECT_ID      = 
CENTER_NAME    = EARTH
REF_FRAME      = TEME
TIME_SYSTEM    = UTC
MEAN_ELEMENT_THEORY = SGP/SGP4

EPOCH          = 2026-02-26T13:09:07.923168
MEAN_MOTION    = 12.92573241
ECCENTRICITY   = .00281246
INCLINATION    = 90.2465
RA_OF_ASC_NODE = 3.5449
ARG_OF_PERICENTER = 209.1041
MEAN_ANOMALY   = 150.8511

EPHEMERIS_TYPE = 0
CLASSIFICATION_TYPE = U
NORAD_CAT_ID   = 270093
ELEMENT_SET_NO = 999
REV_AT_EPOCH   = 29497
BSTAR          = .40490402E-3
MEAN_MOTION_DOT = .117E-5
MEAN_MOTION_DDOT = 0

CCSDS_OMM_VERS = 2.0
CREATION_DATE  = 
ORIGINATOR     = 

OBJECT_NAME    = UNKNOWN
OBJECT_ID      = 
CENTER_NAME    = EARTH
REF_FRAME      = TEME
TIME_SYSTEM    = UTC
MEAN_ELEMENT_THEORY = SGP/SGP4

EPOCH          = 2026-02-26T05:28:46.440192
MEAN_MOTION    = 12.23915648
ECCENTRICITY   = .01192175
INCLINATION    = 102.5935
RA_OF_ASC_NODE = 38.2159
ARG_OF_PERICENTER = 127.8396
MEAN_ANOMALY   = 233.3515

EPHEMERIS_TYPE = 0
CLASSIFICATION_TYPE = U
NORAD_CAT_ID   = 270094
ELEMENT_SET_NO = 999
REV_AT_EPOCH   = 27933
BSTAR          = .55154102E-3
MEAN_MOTION_DOT = .16E-6
MEAN_MOTION_DDOT = 0

CCSDS_OMM_VERS = 2.0
CREATION_DATE  = 
ORIGINATOR     = 

OBJECT_NAME    = UNKNOWN
OBJECT_ID      = 
CENTER_NAME    = EARTH
REF_FRAME      = TEME
TIME_SYSTEM    = UTC
MEAN_ELEMENT_THEORY = SGP/SGP4

EPOCH          = 2026-02-24T14:13:45.494688
MEAN_MOTION    = 12.97303613
ECCENTRICITY   = .00279477
INCLINATION    = 90.2521
RA_OF_ASC_NODE = 9.3388
ARG_OF_PERICENTER = 33.0396
MEAN_ANOMALY   = 327.2463

EPHEMERIS_TYPE = 0
CLASSIFICATION_TYPE = U
NORAD_CAT_ID   = 270095
ELEMENT_SET_NO = 999
REV_AT_EPOCH   = 29564
BSTAR          = -.6834961E-3
MEAN_MOTION_DOT = -.191E-5
MEAN_MOTION_DDOT = 0

CCSDS_OMM_VERS = 2.0
CREATION_DATE  = 
ORIGINATOR     = 

OBJECT_NAME    = UNKNOWN
OBJECT_ID      = 
CENTER_NAME    = EARTH
REF_FRAME      = TEME
TIME_SYSTEM    = UTC
MEAN_ELEMENT_THEORY = SGP/SGP4

EPOCH          = 2026-01-30T07:12:12.546144
MEAN_MOTION    = 14.32682629
ECCENTRICITY   = .00140608
INCLINATION    = 98.6811
RA_OF_ASC_NODE = 49.3425
ARG_OF_PERICENTER = 134.1757
MEAN_ANOMALY   = 226.0585

EPHEMERIS_TYPE = 0
CLASSIFICATION_TYPE = U
NORAD_CAT_ID   = 270096
ELEMENT_SET_NO = 999
REV_AT_EPOCH   = 32238
BSTAR          = .19691699E-3
MEAN_MOTION_DOT = .491E-5
MEAN_MOTION_DDOT = 0

CCSDS_OMM_VERS = 2.0
CREATION_DATE  = 
ORIGINATOR     = 

OBJECT_NAME    = UNKNOWN
OBJECT_ID      = 
CENTER_NAME    = EARTH
REF_FRAME      = TEME
TIME_SYSTEM    = UTC
MEAN_ELEMENT_THEORY = SGP/SGP4

EPOCH          = 2026-02-02T02:20:10.724640
MEAN_MOTION    = 14.41497097
ECCENTRICITY   = .01663423
INCLINATION    = 98.2813
RA_OF_ASC_NODE = 152.1893
ARG_OF_PERICENTER = 174.1204
MEAN_ANOMALY   = 186.1991

EPHEMERIS_TYPE = 0
CLASSIFICATION_TYPE = U
NORAD_CAT_ID   = 270098
ELEMENT_SET_NO = 999
REV_AT_EPOCH   = 32145
BSTAR          = .28919344E-2
MEAN_MOTION_DOT = .11045E-3
MEAN_MOTION_DDOT = 0

CCSDS_OMM_VERS = 2.0
CREATION_DATE  = 
ORIGINATOR     = 

OBJECT_NAME    = UNKNOWN
OBJECT_ID      = 
CENTER_NAME    = EARTH
REF_FRAME      = TEME
TIME_SYSTEM    = UTC
MEAN_ELEMENT_THEORY = SGP/SGP4

EPOCH          = 2026-02-25T00:29:25.492416
MEAN_MOTION    = 12.55191140
ECCENTRICITY   = .01843985
INCLINATION    = 102.3357
RA_OF_ASC_NODE = 167.6447
ARG_OF_PERICENTER = 265.7746
MEAN_ANOMALY   = 92.2233

EPHEMERIS_TYPE = 0
CLASSIFICATION_TYPE = U
NORAD_CAT_ID   = 270099
ELEMENT_SET_NO = 999
REV_AT_EPOCH   = 28484
BSTAR          = .18524237E-1
MEAN_MOTION_DOT = .3166E-4
MEAN_MOTION_DDOT = 0

CCSDS_OMM_VERS = 2.0
CREATION_DATE  = 
ORIGINATOR     = 

OBJECT_NAME    = UNKNOWN
OBJECT_ID      = 
CENTER_NAME    = EARTH
REF_FRAME      = TEME
TIME_SYSTEM    = UTC
MEAN_ELEMENT_THEORY = SGP/SGP4

EPOCH          = 2026-01-30T18:17:52.410624
MEAN_MOTION    = 14.90080715
ECCENTRICITY   = .00371441
INCLINATION    = 97.3050
RA_OF_ASC_NODE = 38.6382
ARG_OF_PERICENTER = 13.0070
MEAN_ANOMALY   = 347.2098

EPHEMERIS_TYPE = 0
CLASSIFICATION_TYPE = U
NORAD_CAT_ID   = 270100
ELEMENT_SET_NO = 999
REV_AT_EPOCH   = 32480
BSTAR          = .59378509E-2
MEAN_MOTION_DOT = .58513E-3
MEAN_MOTION_DDOT = 0

CCSDS_OMM_VERS = 2.0
CREATION_DATE  = 
ORIGINATOR     = 

OBJECT_NAME    = UNKNOWN
OBJECT_ID      = 
CENTER_NAME    = EARTH
REF_FRAME      = TEME
TIME_SYSTEM    = UTC
MEAN_ELEMENT_THEORY = SGP/SGP4

EPOCH          = 2026-02-05T05:20:07.132992
MEAN_MOTION    = 12.38944460
ECCENTRICITY   = .00947722
INCLINATION    = 102.3687
RA_OF_ASC_NODE = 33.1993
ARG_OF_PERICENTER = 186.3677
MEAN_ANOMALY   = 173.6185

EPHEMERIS_TYPE = 0
CLASSIFICATION_TYPE = U
NORAD_CAT_ID   = 270101
ELEMENT_SET_NO = 999
REV_AT_EPOCH   = 28020
BSTAR          = .179006E-6
MEAN_MOTION_DOT = -.47E-6
MEAN_MOTION_DDOT = 0

